{"type": "FeatureCollection", "features": [ {"type": "Feature", "properties": {"norad_id": 41836, "name": "HIMAWARI-9", "group": "weather", "lat": -0.008718196967819324, "lon": -16.629055522918623, "alt_km": 35778.68036252386, "timestamp": "2025-12-20T07:33:50.443638+00:00", "meta": {"OBJECT_NAME": "HIMAWARI-9", "OBJECT_ID": "2016-064A", "EPOCH": "2025-12-19T19:04:03.567072", "MEAN_MOTION": 1.00277553, "ECCENTRICITY": 0.00015136, "INCLINATION": 0.0184, "RA_OF_ASC_NODE": 353.8335, "ARG_OF_PERICENTER": 326.3623, "MEAN_ANOMALY": 195.209, "EPHEMERIS_TYPE": 0, "CLASSIFICATION_TYPE": "U", "NORAD_CAT_ID": 41836, "ELEMENT_SET_NO": 999, "REV_AT_EPOCH": 3341, "BSTAR": 0, "MEAN_MOTION_DOT": 0, "MEAN_MOTION_DDOT": 0}, "tle": {"line1": "1 41836U 16064A   25353.79448573  .00000000  00000+0  00000+0 0  9992", "line2": "2 41836   0.0184 353.8335 0001513 326.3623 195.2090  1.00277553 33419"}}, "geometry": {"type": "Point", "coordinates": [-16.629055522918623, -0.008718196967819324]}}, {"type": "Feature", "properties": {"norad_id": 41866, "name": "GOES 16", "group": "weather", "lat": 0.022025846964083075, "lon": 97.92431316028643, "alt_km": 35798.45694293478, "timestamp": "2025-12-20T07:33:50.443652+00:00", "meta": {"OBJECT_NAME": "GOES 16", "OBJECT_ID": "2016-071A", "EPOCH": "2025-12-19T16:11:23.254944", "MEAN_MOTION": 1.00272202, "ECCENTRICITY": 0.00030189, "INCLINATION": 0.073, "RA_OF_ASC_NODE": 103.1255, "ARG_OF_PERICENTER": 162.2731, "MEAN_ANOMALY": 321.2972, "EPHEMERIS_TYPE": 0, "CLASSIFICATION_TYPE": "U", "NORAD_CAT_ID": 41866, "ELEMENT_SET_NO": 999, "REV_AT_EPOCH": 3330, "BSTAR": 0, "MEAN_MOTION_DOT": -6.7e-07, "MEAN_MOTION_DDOT": 0}, "tle": {"line1": "1 41866U 16071A   25353.67457471 -.00000067  00000+0  00000+0 0  9991", "line2": "2 41866   0.0730 103.1255 0003018 162.2731 321.2972  1.00272202 33309"}}, "geometry": {"type": "Point", "coordinates": [97.92431316028643, 0.022025846964083075]}}, {"type": "Feature", "properties": {"norad_id": 41882, "name": "FENGYUN 4A", "group": "weather", "lat": -1.6945398575306228, "lon": -33.62345930411058, "alt_km": 35791.4485389835, "timestamp": "2025-12-20T07:33:50.443664+00:00", "meta": {"OBJECT_NAME": "FENGYUN 4A", "OBJECT_ID": "2016-077A", "EPOCH": "2025-12-19T13:51:06.687072", "MEAN_MOTION": 1.00266581, "ECCENTRICITY": 0.0004506, "INCLINATION": 1.866, "RA_OF_ASC_NODE": 82.3247, "ARG_OF_PERICENTER": 142.8816, "MEAN_ANOMALY": 194.7423, "EPHEMERIS_TYPE": 0, "CLASSIFICATION_TYPE": "U", "NORAD_CAT_ID": 41882, "ELEMENT_SET_NO": 999, "REV_AT_EPOCH": 3312, "BSTAR": 0, "MEAN_MOTION_DOT": -3.34e-06, "MEAN_MOTION_DDOT": 0}, "tle": {"line1": "1 41882U 16077A   25353.57716073 -.00000334  00000+0  00000+0 0  9997", "line2": "2 41882   1.8660  82.3247 0004506 142.8816 194.7423  1.00266581 33125"}}, "geometry": {"type": "Point", "coordinates": [-33.62345930411058, -1.6945398575306228]}}, {"type": "Feature", "properties": {"norad_id": 41884, "name": "CYGFM05", "group": "weather", "lat": 9.258926072562872, "lon": 164.14433837288735, "alt_km": 420.07977281234616, "timestamp": "2025-12-20T07:33:50.443676+00:00", "meta": {"OBJECT_NAME": "CYGFM05", "OBJECT_ID": "2016-078A", "EPOCH": "2025-12-19T09:11:21.636384", "MEAN_MOTION": 15.47871855, "ECCENTRICITY": 0.0010737, "INCLINATION": 34.9606, "RA_OF_ASC_NODE": 3.7291, "ARG_OF_PERICENTER": 241.806, "MEAN_ANOMALY": 118.1577, "EPHEMERIS_TYPE": 0, "CLASSIFICATION_TYPE": "U", "NORAD_CAT_ID": 41884, "ELEMENT_SET_NO": 999, "REV_AT_EPOCH": 50079, "BSTAR": 0.00028094, "MEAN_MOTION_DOT": 0.00015083, "MEAN_MOTION_DDOT": 0}, "tle": {"line1": "1 41884U 16078A   25353.38288931  .00015083  00000+0  28094-3 0  9999", "line2": "2 41884  34.9606   3.7291 0010737 241.8060 118.1577 15.47871855500798"}}, "geometry": {"type": "Point", "coordinates": [164.14433837288735, 9.258926072562872]}}, {"type": "Feature", "properties": {"norad_id": 41885, "name": "CYGFM04", "group": "weather", "lat": 30.29596185388601, "lon": 95.36882080467247, "alt_km": 415.20210558513645, "timestamp": "2025-12-20T07:33:50.443687+00:00", "meta": {"OBJECT_NAME": "CYGFM04", "OBJECT_ID": "2016-078B", "EPOCH": "2025-12-19T07:52:46.453152", "MEAN_MOTION": 15.50627093, "ECCENTRICITY": 0.0009761, "INCLINATION": 34.9358, "RA_OF_ASC_NODE": 338.6707, "ARG_OF_PERICENTER": 266.492, "MEAN_ANOMALY": 93.4686, "EPHEMERIS_TYPE": 0, "CLASSIFICATION_TYPE": "U", "NORAD_CAT_ID": 41885, "ELEMENT_SET_NO": 999, "REV_AT_EPOCH": 50096, "BSTAR": 0.0003093, "MEAN_MOTION_DOT": 0.00018314, "MEAN_MOTION_DDOT": 0}, "tle": {"line1": "1 41885U 16078B   25353.32831543  .00018314  00000+0  30930-3 0  9999", "line2": "2 41885  34.9358 338.6707 0009761 266.4920  93.4686 15.50627093500960"}}, "geometry": {"type": "Point", "coordinates": [95.36882080467247, 30.29596185388601]}}, {"type": "Feature", "properties": {"norad_id": 41886, "name": "CYGFM02", "group": "weather", "lat": 6.132376500105392, "lon": 141.56968941073566, "alt_km": 410.9824998116337, "timestamp": "2025-12-20T07:33:50.443714+00:00", "meta": {"OBJECT_NAME": "CYGFM02", "OBJECT_ID": "2016-078C", "EPOCH": "2025-12-19T09:13:31.944000", "MEAN_MOTION": 15.52029516, "ECCENTRICITY": 0.0011406, "INCLINATION": 34.9446, "RA_OF_ASC_NODE": 336.5423, "ARG_OF_PERICENTER": 267.1971, "MEAN_ANOMALY": 92.7446, "EPHEMERIS_TYPE": 0, "CLASSIFICATION_TYPE": "U", "NORAD_CAT_ID": 41886, "ELEMENT_SET_NO": 999, "REV_AT_EPOCH": 50110, "BSTAR": 0.0002974, "MEAN_MOTION_DOT": 0.00018531, "MEAN_MOTION_DDOT": 0}, "tle": {"line1": "1 41886U 16078C   25353.38439750  .00018531  00000+0  29740-3 0  9998", "line2": "2 41886  34.9446 336.5423 0011406 267.1971  92.7446 15.52029516501105"}}, "geometry": {"type": "Point", "coordinates": [141.56968941073566, 6.132376500105392]}}, {"type": "Feature", "properties": {"norad_id": 41887, "name": "CYGFM01", "group": "weather", "lat": -23.429295860440085, "lon": -141.7053300992043, "alt_km": 415.8247009859524, "timestamp": "2025-12-20T07:33:50.443727+00:00", "meta": {"OBJECT_NAME": "CYGFM01", "OBJECT_ID": "2016-078D", "EPOCH": "2025-12-19T10:29:10.828032", "MEAN_MOTION": 15.48460328, "ECCENTRICITY": 0.0010407, "INCLINATION": 34.9437, "RA_OF_ASC_NODE": 5.6782, "ARG_OF_PERICENTER": 234.9387, "MEAN_ANOMALY": 125.0359, "EPHEMERIS_TYPE": 0, "CLASSIFICATION_TYPE": "U", "NORAD_CAT_ID": 41887, "ELEMENT_SET_NO": 999, "REV_AT_EPOCH": 50074, "BSTAR": 0.00029609, "MEAN_MOTION_DOT": 0.00016232, "MEAN_MOTION_DDOT": 0}, "tle": {"line1": "1 41887U 16078D   25353.43693088  .00016232  00000+0  29609-3 0  9991", "line2": "2 41887  34.9437   5.6782 0010407 234.9387 125.0359 15.48460328500748"}}, "geometry": {"type": "Point", "coordinates": [-141.7053300992043, -23.429295860440085]}}, {"type": "Feature", "properties": {"norad_id": 41888, "name": "CYGFM08", "group": "weather", "lat": -27.718310181676358, "lon": -65.96293936695503, "alt_km": 413.0178129326214, "timestamp": "2025-12-20T07:33:50.443739+00:00", "meta": {"OBJECT_NAME": "CYGFM08", "OBJECT_ID": "2016-078E", "EPOCH": "2025-12-19T16:20:11.530464", "MEAN_MOTION": 15.4969152, "ECCENTRICITY": 0.001198, "INCLINATION": 34.9468, "RA_OF_ASC_NODE": 346.9937, "ARG_OF_PERICENTER": 259.5157, "MEAN_ANOMALY": 100.4216, "EPHEMERIS_TYPE": 0, "CLASSIFICATION_TYPE": "U", "NORAD_CAT_ID": 41888, "ELEMENT_SET_NO": 999, "REV_AT_EPOCH": 50101, "BSTAR": 0.00028607198, "MEAN_MOTION_DOT": 0.00016391, "MEAN_MOTION_DDOT": 0}, "tle": {"line1": "1 41888U 16078E   25353.68068901  .00016391  00000+0  28607-3 0  9992", "line2": "2 41888  34.9468 346.9937 0011980 259.5157 100.4216 15.49691520501012"}}, "geometry": {"type": "Point", "coordinates": [-65.96293936695503, -27.718310181676358]}}, {"type": "Feature", "properties": {"norad_id": 41890, "name": "CYGFM07", "group": "weather", "lat": -26.268627247009157, "lon": -73.19501944374484, "alt_km": 411.36377934383927, "timestamp": "2025-12-20T07:33:50.443750+00:00", "meta": {"OBJECT_NAME": "CYGFM07", "OBJECT_ID": "2016-078G", "EPOCH": "2025-12-19T08:35:55.881024", "MEAN_MOTION": 15.50269103, "ECCENTRICITY": 0.0010122, "INCLINATION": 34.9484, "RA_OF_ASC_NODE": 338.0499, "ARG_OF_PERICENTER": 271.9138, "MEAN_ANOMALY": 88.0425, "EPHEMERIS_TYPE": 0, "CLASSIFICATION_TYPE": "U", "NORAD_CAT_ID": 41890, "ELEMENT_SET_NO": 999, "REV_AT_EPOCH": 50098, "BSTAR": 0.00031348, "MEAN_MOTION_DOT": 0.00018328, "MEAN_MOTION_DDOT": 0}, "tle": {"line1": "1 41890U 16078G   25353.35828566  .00018328  00000+0  31348-3 0  9998", "line2": "2 41890  34.9484 338.0499 0010122 271.9138  88.0425 15.50269103500980"}}, "geometry": {"type": "Point", "coordinates": [-73.19501944374484, -26.268627247009157]}}, {"type": "Feature", "properties": {"norad_id": 41891, "name": "CYGFM03", "group": "weather", "lat": 20.988336020591024, "lon": 120.37000158684616, "alt_km": 415.93990096882317, "timestamp": "2025-12-20T07:33:50.443762+00:00", "meta": {"OBJECT_NAME": "CYGFM03", "OBJECT_ID": "2016-078H", "EPOCH": "2025-12-19T09:19:08.109120", "MEAN_MOTION": 15.50167103, "ECCENTRICITY": 0.0009679, "INCLINATION": 34.9439, "RA_OF_ASC_NODE": 339.7759, "ARG_OF_PERICENTER": 260.0765, "MEAN_ANOMALY": 99.8864, "EPHEMERIS_TYPE": 0, "CLASSIFICATION_TYPE": "U", "NORAD_CAT_ID": 41891, "ELEMENT_SET_NO": 999, "REV_AT_EPOCH": 50096, "BSTAR": 0.0003054, "MEAN_MOTION_DOT": 0.00017785, "MEAN_MOTION_DDOT": 0}, "tle": {"line1": "1 41891U 16078H   25353.38828830  .00017785  00000+0  30540-3 0  9995", "line2": "2 41891  34.9439 339.7759 0009679 260.0765  99.8864 15.50167103500960"}}, "geometry": {"type": "Point", "coordinates": [120.37000158684616, 20.988336020591024]}}]}